STARLINK-33763          
1 63452U 25069V   26193.50191878  .00014628  00000+0  44318-3 0  9995
2 63452  53.1580 277.0625 0001083  55.1008 305.0096 15.34403220 72594
STARLINK-33784          
1 63453U 25069W   26193.52336219  .00017037  00000+0  58566-3 0  9995
2 63453  53.1593 282.8959 0000764  98.6774 261.4313 15.30220162 72517
STARLINK-33768          
1 63454U 25069X   26193.63429198  .00011735  00000+0  35785-3 0  9994
2 63454  53.1588 276.4661 0001122  70.8587 289.2537 15.34404007 72606
STARLINK-33761          
1 63455U 25069Y   26193.74562789  .00016258  00000+0  49103-3 0  9995
2 63455  53.1586 275.7393 0001199  65.8297 294.2831 15.34415525 72638
STARLINK-33737          
1 63456U 25069Z   26193.83335647 -.00004724  00000+0 -12892-3 0  9999
2 63456  53.1586 275.3684 0000737 105.4562 356.3517 15.34369344  5905
STARLINK-33795          
1 63457U 25069AA  26193.70363966  .00013012  00000+0  39555-3 0  9994
2 63457  53.1591 276.1937 0001113  83.8012 276.3117 15.34400846 72511
STARLINK-33756          
1 63458U 25069AB  26193.69311003  .00005495  00000+0  17371-3 0  9996
2 63458  53.1590 276.1157 0001176  81.5434 278.5702 15.34389840 72623
STARLINK-33780          
1 63459U 25069AC  26193.70153139  .00013919  00000+0  42225-3 0  9999
2 63459  53.1591 276.1721 0000630  61.3474 298.7592 15.34404775 72510
STARLINK-33679          
1 63460U 25070A   26193.25381541  .00007603  00000+0  28548-3 0  9998
2 63460  42.9950 276.6390 0001278 165.3353 194.7536 15.27585897 72020
STARLINK-33706          
1 63461U 25070B   26193.25767073  .00007494  00000+0  28159-3 0  9993
2 63461  42.9984 276.6404 0001311 267.7812  92.2889 15.27579032 72026
STARLINK-33691          
1 63462U 25070C   26193.27165720  .00008527  00000+0  31902-3 0  9995
2 63462  43.0032 275.8859 0002659 289.7031  70.3534 15.27582315 71987
STARLINK-33696          
1 63463U 25070D   26193.62428839  .00009727  00000+0  36248-3 0  9999
2 63463  43.0048 274.2394 0002595 291.3895  68.6680 15.27585893 72086
STARLINK-33701          
1 63464U 25070E   26193.58845125  .00011964  00000+0  44336-3 0  9999
2 63464  42.9981 274.8210 0001253 256.4149 103.6563 15.27596633 72071
STARLINK-33685          
1 63465U 25070F   26193.57046329  .00008362  00000+0  31300-3 0  9993
2 63465  43.0003 274.6882 0002197 261.2928  98.7675 15.27585875 72073
STARLINK-33654          
1 63466U 25070G   26193.23325521  .00010840  00000+0  40282-3 0  9994
2 63466  43.0028 276.4600 0002376 284.0075  76.0512 15.27582911 72026
STARLINK-33697          
1 63467U 25070H   26193.56277617  .00010509  00000+0  39123-3 0  9997
2 63467  43.0010 274.6437 0001939 269.8363  90.2267 15.27547746 72078
STARLINK-33720          
1 63468U 25070J   26193.62942644  .00010988  00000+0  40807-3 0  9996
2 63468  43.0016 274.2722 0001990 285.8161  74.2472 15.27593105 72080
STARLINK-33587          
1 63469U 25070K   26193.28706880  .00011771  00000+0  43674-3 0  9995
2 63469  42.9976 275.9896 0001634 168.7091 191.3797 15.27569236 72034
STARLINK-33637          
1 63470U 25070L   26193.83335647 -.00011384  00000+0 -40454-3 0  9992
2 63470  43.0005 273.4894 0001523 276.6013 330.5937 15.27599583  5792
STARLINK-33744          
1 63471U 25070M   26193.24995953  .00004968  00000+0  18996-3 0  9994
2 63471  42.9983 276.5773 0001812 279.0964  80.9683 15.27578433 72024
STARLINK-33766          
1 63472U 25070N   26193.25895383  .00009700  00000+0  36150-3 0  9993
2 63472  42.9991 276.6482 0001136 254.3949 105.6778 15.27583461 72027
STARLINK-33765          
1 63473U 25070P   26193.30635022  .00008421  00000+0  31513-3 0  9999
2 63473  42.9996 276.1432 0001589 266.8224  93.2446 15.27584262 72034
STARLINK-33735          
1 63474U 25070Q   26193.33335648 -.00006095  00000+0 -21214-3 0  9998
2 63474  43.0031 275.7505 0001683 271.4912 336.3099 15.27577381  5770
STARLINK-33731          
1 63475U 25070R   26193.58973823  .00007978  00000+0  29905-3 0  9993
2 63475  43.0066 274.8376 0002286 289.6405  70.4200 15.27587527 72073
STARLINK-33718          
1 63476U 25070S   26193.27549863  .00006229  00000+0  23558-3 0  9999
2 63476  42.9928 275.8969 0001151 196.4494 163.6320 15.27591840 72038
STARLINK-33630          
1 63477U 25070T   26193.33335648 -.00013424  00000+0 -47906-3 0  9991
2 63477  43.0017 272.2999 0001825 271.5513 326.5239 15.27585853  5918
STARLINK-33695          
1 63478U 25070U   26193.60420781  .00013044  00000+0  48247-3 0  9990
2 63478  43.0058 270.5941 0002703 286.7817  73.2738 15.27593358 72129
STARLINK-33713          
1 63479U 25070V   26193.28112907  .00013192  00000+0  48794-3 0  9994
2 63479  43.0008 272.4640 0001268 251.6407 108.4307 15.27588830 72079
STARLINK-33721          
1 63480U 25070W   26193.67601723  .00010470  00000+0  38933-3 0  9998
2 63480  43.0020 270.2744 0002011 278.2080  81.8544 15.27591079 72138
STARLINK-33639          
1 63481U 25070X   26193.56452275  .00010842  00000+0  40291-3 0  9996
2 63481  42.9999 271.1527 0001360 257.1523 102.9177 15.27582304 72111
