OBJECT_NAME,OBJECT_ID,EPOCH,MEAN_MOTION,ECCENTRICITY,INCLINATION,RA_OF_ASC_NODE,ARG_OF_PERICENTER,MEAN_ANOMALY,EPHEMERIS_TYPE,CLASSIFICATION_TYPE,NORAD_CAT_ID,ELEMENT_SET_NO,REV_AT_EPOCH,BSTAR,MEAN_MOTION_DOT,MEAN_MOTION_DDOT
STARLINK-33763,2025-069V,2026-07-12T12:02:45.782592,15.34403220,.00010839,53.1580,277.0625,55.1008,305.0096,0,U,63452,999,7259,.44318419E-3,.14628E-3,0
STARLINK-33784,2025-069W,2026-07-12T12:33:38.493216,15.30220162,.00007647,53.1593,282.8959,98.6774,261.4313,0,U,63453,999,7251,.58566466E-3,.17037E-3,0
STARLINK-33768,2025-069X,2026-07-12T15:13:22.827072,15.34404007,.0001122,53.1588,276.4661,70.8587,289.2537,0,U,63454,999,7260,.35785E-3,.11735E-3,0
STARLINK-33761,2025-069Y,2026-07-12T17:53:42.249696,15.34415525,.0001199,53.1586,275.7393,65.8297,294.2831,0,U,63455,999,7263,.49103E-3,.16258E-3,0
STARLINK-33737,2025-069Z,2026-07-12T20:00:01.999008,15.34369344,.0000737,53.1586,275.3684,105.4562,356.3517,0,U,63456,999,590,-.12892E-3,-.4724E-4,0
STARLINK-33795,2025-069AA,2026-07-12T16:53:14.466624,15.34400846,.0001113,53.1591,276.1937,83.8012,276.3117,0,U,63457,999,7251,.39555E-3,.13012E-3,0
STARLINK-33756,2025-069AB,2026-07-12T16:38:04.706592,15.34389840,.0001176,53.1590,276.1157,81.5434,278.5702,0,U,63458,999,7262,.17371E-3,.5495E-4,0
STARLINK-33780,2025-069AC,2026-07-12T16:50:12.312096,15.34404775,.000063,53.1591,276.1721,61.3474,298.7592,0,U,63459,999,7251,.42225E-3,.13919E-3,0
STARLINK-33679,2025-070A,2026-07-12T06:05:29.651424,15.27585897,.0001278,42.9950,276.6390,165.3353,194.7536,0,U,63460,999,7202,.28548E-3,.7603E-4,0
STARLINK-33706,2025-070B,2026-07-12T06:11:02.751072,15.27579032,.0001311,42.9984,276.6404,267.7812,92.2889,0,U,63461,999,7202,.28159E-3,.7494E-4,0
STARLINK-33691,2025-070C,2026-07-12T06:31:11.182080,15.27582315,.0002659,43.0032,275.8859,289.7031,70.3534,0,U,63462,999,7198,.31902E-3,.8527E-4,0
STARLINK-33696,2025-070D,2026-07-12T14:58:58.516896,15.27585893,.0002595,43.0048,274.2394,291.3895,68.6680,0,U,63463,999,7208,.36248E-3,.9727E-4,0
STARLINK-33701,2025-070E,2026-07-12T14:07:22.188000,15.27596633,.0001253,42.9981,274.8210,256.4149,103.6563,0,U,63464,999,7207,.44336E-3,.11964E-3,0
STARLINK-33685,2025-070F,2026-07-12T13:41:28.028256,15.27585875,.0002197,43.0003,274.6882,261.2928,98.7675,0,U,63465,999,7207,.313E-3,.8362E-4,0
STARLINK-33654,2025-070G,2026-07-12T05:35:53.250144,15.27582911,.0002376,43.0028,276.4600,284.0075,76.0512,0,U,63466,999,7202,.40282E-3,.1084E-3,0
STARLINK-33697,2025-070H,2026-07-12T13:30:23.861088,15.27547746,.0001939,43.0010,274.6437,269.8363,90.2267,0,U,63467,999,7207,.39123E-3,.10509E-3,0
STARLINK-33720,2025-070J,2026-07-12T15:06:22.444416,15.27593105,.000199,43.0016,274.2722,285.8161,74.2472,0,U,63468,999,7208,.40807E-3,.10988E-3,0
STARLINK-33587,2025-070K,2026-07-12T06:53:22.744320,15.27569236,.0001634,42.9976,275.9896,168.7091,191.3797,0,U,63469,999,7203,.43674E-3,.11771E-3,0
STARLINK-33637,2025-070L,2026-07-12T20:00:01.999008,15.27599583,.0001523,43.0005,273.4894,276.6013,330.5937,0,U,63470,999,579,-.40454E-3,-.11384E-3,0
STARLINK-33744,2025-070M,2026-07-12T05:59:56.503392,15.27578433,.0001812,42.9983,276.5773,279.0964,80.9683,0,U,63471,999,7202,.18996E-3,.4968E-4,0
STARLINK-33766,2025-070N,2026-07-12T06:12:53.610912,15.27583461,.0001136,42.9991,276.6482,254.3949,105.6778,0,U,63472,999,7202,.3615E-3,.97E-4,0
STARLINK-33765,2025-070P,2026-07-12T07:21:08.659008,15.27584262,.00015894,42.9996,276.1432,266.8224,93.2446,0,U,63473,999,7203,.31513445E-3,.8421E-4,0
STARLINK-33735,2025-070Q,2026-07-12T08:00:01.999872,15.27577381,.00016835,43.0031,275.7505,271.4912,336.3099,0,U,63474,999,577,-.21213873E-3,-.6095E-4,0
STARLINK-33731,2025-070R,2026-07-12T14:09:13.383072,15.27587527,.0002286,43.0066,274.8376,289.6405,70.4200,0,U,63475,999,7207,.29905E-3,.7978E-4,0
STARLINK-33718,2025-070S,2026-07-12T06:36:43.081632,15.27591840,.0001151,42.9928,275.8969,196.4494,163.6320,0,U,63476,999,7203,.23558E-3,.6229E-4,0
STARLINK-33630,2025-070T,2026-07-12T08:00:01.999872,15.27585853,.00018254,43.0017,272.2999,271.5513,326.5239,0,U,63477,999,591,-.47906087E-3,-.13424E-3,0
STARLINK-33695,2025-070U,2026-07-12T14:30:03.554784,15.27593358,.0002703,43.0058,270.5941,286.7817,73.2738,0,U,63478,999,7212,.48247E-3,.13044E-3,0
STARLINK-33713,2025-070V,2026-07-12T06:44:49.551648,15.27588830,.0001268,43.0008,272.4640,251.6407,108.4307,0,U,63479,999,7207,.48794E-3,.13192E-3,0
STARLINK-33721,2025-070W,2026-07-12T16:13:27.888672,15.27591079,.0002011,43.0020,270.2744,278.2080,81.8544,0,U,63480,999,7213,.38933E-3,.1047E-3,0
STARLINK-33639,2025-070X,2026-07-12T13:32:54.765600,15.27582304,.000136,42.9999,271.1527,257.1523,102.9177,0,U,63481,999,7211,.40291E-3,.10842E-3,0
